OBJECT_NAME,OBJECT_ID,EPOCH,MEAN_MOTION,ECCENTRICITY,INCLINATION,RA_OF_ASC_NODE,ARG_OF_PERICENTER,MEAN_ANOMALY,EPHEMERIS_TYPE,CLASSIFICATION_TYPE,NORAD_CAT_ID,ELEMENT_SET_NO,REV_AT_EPOCH,BSTAR,MEAN_MOTION_DOT,MEAN_MOTION_DDOT
GSAT-7,2013-044B,2026-06-09T18:49:17.078016,1.00270557,.00030539,0.0643,99.4849,188.9935,325.9883,0,U,39234,999,4518,0,-.59E-6,0
AMOS-4,2013-045A,2026-06-09T17:48:32.435712,1.00271514,.00025238,0.0365,92.3054,325.3791,172.5619,0,U,39237,999,4688,0,.25E-6,0
AEHF-3 (USA 246),2013-050A,2026-06-09T15:10:53.939136,1.00270712,.00877774,5.2759,67.2523,188.0677,106.1222,0,U,39256,999,4557,0,.45E-6,0
ASTRA 2E,2013-056A,2026-06-09T03:12:26.290368,1.00274204,.00027019,0.0660,323.6010,123.8507,246.6953,0,U,39285,999,4633,0,.167E-5,0
FM-6,2013-058A,2026-06-08T15:06:37.024416,1.00255605,.00027713,0.0107,82.6412,69.5183,215.1325,0,U,39360,999,4598,0,.3E-7,0
RADUGA-1M 3,2013-062A,2026-06-09T20:20:52.805760,1.00272556,.00014671,5.9382,72.4452,266.1224,259.8558,0,U,39375,999,4603,0,.169E-5,0
SES-8,2013-071A,2026-06-09T20:12:21.575232,1.00270008,.00027999,0.0308,279.2886,166.6901,210.3265,0,U,39460,999,4435,0,-.252E-5,0
INMARSAT 5-F1,2013-073A,2026-06-09T11:55:26.891328,1.00271530,.00004521,0.0176,8.6429,313.1528,177.5648,0,U,39476,999,4550,0,.45E-6,0
TKSAT-1 (TUPAC KATARI),2013-075A,2026-06-09T14:38:03.355584,1.00271812,.00025168,0.0405,133.8997,295.0800,321.3381,0,U,39481,999,4552,0,-.178E-5,0
EXPRESS-AM5,2013-077A,2026-06-08T19:10:54.873408,1.00272967,.00005105,0.0130,288.2715,83.6383,313.0502,0,U,39487,999,4627,0,-.263E-5,0
GSAT-14,2014-001A,2026-06-09T17:06:41.104800,1.00269584,.00010034,0.0135,11.3485,272.9046,304.4913,0,U,39498,999,4530,0,0,0
THAICOM 6,2014-002A,2026-06-09T10:17:22.028352,1.00269478,.00045175,0.0849,104.9062,359.5049,26.2248,0,U,39500,999,4538,0,-.103E-5,0
TDRS 12,2014-004A,2026-06-09T11:25:53.373216,1.00269700,.00028718,3.9692,18.9520,197.8626,171.6093,0,U,39504,999,4420,0,-.255E-5,0
ABS-2,2014-006A,2026-06-09T20:32:17.630304,1.00271305,.00040307,0.0343,79.0869,345.8750,216.2678,0,U,39508,999,4520,0,-.69E-6,0
ATHENA-FIDUS,2014-006B,2026-06-09T04:57:44.737056,1.00270971,.0001428,0.0437,101.5707,352.5836,275.6670,0,U,39509,999,4500,0,.171E-5,0
TURKSAT 4A,2014-007A,2026-06-09T16:57:33.277824,1.00270660,.00013901,0.0512,295.5012,28.8200,230.1381,0,U,39522,999,4489,0,.163E-5,0
EXPRESS-AT1,2014-010A,2026-06-09T23:01:20.796672,1.00302222,.00039089,0.2376,85.7681,36.7374,182.6795,0,U,39612,999,4474,0,.48E-6,0
EXPRESS-AT2,2014-010B,2026-06-09T17:01:34.096224,1.00270653,.00002094,0.0155,286.3277,64.1972,218.9491,0,U,39613,999,4442,0,.96E-6,0
AMAZONAS 4A,2014-011A,2026-06-09T09:33:50.368896,1.00272877,.00038108,0.0645,200.3047,266.0314,220.9020,0,U,39616,999,4463,0,-.235E-5,0
ASTRA 5B,2014-011B,2026-06-09T16:52:18.780096,1.00270464,.00020106,0.0541,321.3742,105.1524,108.1211,0,U,39617,999,4459,0,.154E-5,0
IRNSS-1B,2014-017A,2026-06-03T19:07:33.328992,1.00272113,.0023143,28.9456,240.6342,186.5094,167.0601,0,U,39635,999,4465,0,.128E-5,0
LUCH-5V,2014-023A,2026-06-09T22:46:27.291936,1.00266828,.00028001,5.1145,69.8240,34.9718,229.7901,0,U,39727,999,4428,0,-.251E-5,0
KAZSAT-3,2014-023B,2026-06-09T17:02:19.024224,1.00270882,.00001377,0.0258,49.1732,3.2524,159.7259,0,U,39728,999,4238,0,.78E-6,0
EUTELSAT 3B,2014-030A,2026-06-09T16:46:26.842656,1.00272666,.00039291,0.0610,358.2701,80.9865,73.5359,0,U,39773,999,4399,0,.37E-6,0
ASIASAT 8 (AMOS-7),2014-046A,2026-06-09T20:43:48.450144,1.00270413,.0001416,0.0180,323.1783,117.5202,233.8124,0,U,40107,999,10207,0,-.315E-5,0
ASIASAT 6,2014-052A,2026-06-09T20:45:08.898048,1.00268224,.00006673,0.0201,355.2143,108.9677,225.2493,0,U,40141,999,4300,0,0,0
OPTUS 10,2014-054A,2026-06-09T14:57:38.653056,1.00270113,.00019624,0.0466,284.2137,154.6250,199.5599,0,U,40146,999,4295,0,-.13E-5,0
MEASAT-3B,2014-054B,2026-06-09T17:11:40.625952,1.00272185,.00031401,0.0492,48.8331,20.1826,178.4882,0,U,40147,999,4283,0,-.224E-5,0
HIMAWARI-8,2014-060A,2026-06-08T20:10:00.000192,1.00270961,.00008182,0.0136,319.3355,138.5674,242.4936,0,U,40267,999,4267,0,-.259E-5,0
IRNSS-1C,2014-061A,2026-06-09T17:09:18.353664,1.00270512,.00226632,6.4996,89.0704,1.5784,147.7780,0,U,40269,999,4261,0,-.145E-5,0
INTELSAT 30 (IS-30),2014-062A,2026-06-09T11:01:24.516192,1.00267702,.00008753,0.0210,37.4356,356.8023,293.8423,0,U,40271,999,671,0,-.133E-5,0
ARSAT 1,2014-062B,2026-06-09T09:34:27.808608,1.00269778,.00017244,0.0140,4.4256,72.0389,253.1201,0,U,40272,999,4254,0,-.243E-5,0
