GSAT-7                  
1 39234U 13044B   26160.78422544 -.00000059  00000+0  00000+0 0  9997
2 39234   0.0643  99.4849 0003053 188.9935 325.9883  1.00270557 45186
AMOS-4                  
1 39237U 13045A   26160.74204208  .00000025  00000+0  00000+0 0  9994
2 39237   0.0365  92.3054 0002523 325.3791 172.5619  1.00271514 46883
AEHF-3 (USA 246)        
1 39256U 13050A   26160.63256874  .00000045  00000+0  00000+0 0  9997
2 39256   5.2759  67.2523 0087777 188.0677 106.1222  1.00270712 45578
ASTRA 2E                
1 39285U 13056A   26160.13363762  .00000167  00000+0  00000+0 0  9990
2 39285   0.0660 323.6010 0002701 123.8507 246.6953  1.00274204 46333
FM-6                    
1 39360U 13058A   26159.62959519  .00000003  00000+0  00000+0 0  9998
2 39360   0.0107  82.6412 0002771  69.5183 215.1325  1.00255605 45982
RADUGA-1M 3             
1 39375U 13062A   26160.84783340  .00000169  00000+0  00000+0 0  9995
2 39375   5.9382  72.4452 0001467 266.1224 259.8558  1.00272556 46034
SES-8                   
1 39460U 13071A   26160.84191638 -.00000252  00000+0  00000+0 0  9997
2 39460   0.0308 279.2886 0002799 166.6901 210.3265  1.00270008 44356
INMARSAT 5-F1           
1 39476U 13073A   26160.49683902  .00000045  00000+0  00000+0 0  9996
2 39476   0.0176   8.6429 0000452 313.1528 177.5648  1.00271530 45509
TKSAT-1 (TUPAC KATARI)  
1 39481U 13075A   26160.60976106 -.00000178  00000+0  00000+0 0  9996
2 39481   0.0405 133.8997 0002516 295.0800 321.3381  1.00271812 45523
EXPRESS-AM5             
1 39487U 13077A   26159.79924622 -.00000263  00000+0  00000+0 0  9993
2 39487   0.0130 288.2715 0000510  83.6383 313.0502  1.00272967 46274
GSAT-14                 
1 39498U 14001A   26160.71297575  .00000000  00000+0  00000+0 0  9995
2 39498   0.0135  11.3485 0001003 272.9046 304.4913  1.00269584 45301
THAICOM 6               
1 39500U 14002A   26160.42872718 -.00000103  00000+0  00000+0 0  9991
2 39500   0.0849 104.9062 0004517 359.5049  26.2248  1.00269478 45385
TDRS 12                 
1 39504U 14004A   26160.47631219 -.00000255  00000+0  00000+0 0  9999
2 39504   3.9692  18.9520 0002871 197.8626 171.6093  1.00269700 44206
ABS-2                   
1 39508U 14006A   26160.85575961 -.00000069  00000+0  00000+0 0  9991
2 39508   0.0343  79.0869 0004030 345.8750 216.2678  1.00271305 45207
ATHENA-FIDUS            
1 39509U 14006B   26160.20676779  .00000171  00000+0  00000+0 0  9993
2 39509   0.0437 101.5707 0001428 352.5836 275.6670  1.00270971 45009
TURKSAT 4A              
1 39522U 14007A   26160.70663516  .00000163  00000+0  00000+0 0  9990
2 39522   0.0512 295.5012 0001390  28.8200 230.1381  1.00270660 44893
EXPRESS-AT1             
1 39612U 14010A   26160.95926848  .00000048  00000+0  00000+0 0  9993
2 39612   0.2376  85.7681 0003908  36.7374 182.6795  1.00302222 44745
EXPRESS-AT2             
1 39613U 14010B   26160.70942241  .00000096  00000+0  00000+0 0  9995
2 39613   0.0155 286.3277 0000209  64.1972 218.9491  1.00270653 44422
AMAZONAS 4A             
1 39616U 14011A   26160.39849964 -.00000235  00000+0  00000+0 0  9998
2 39616   0.0645 200.3047 0003810 266.0314 220.9020  1.00272877 44638
ASTRA 5B                
1 39617U 14011B   26160.70299514  .00000154  00000+0  00000+0 0  9993
2 39617   0.0541 321.3742 0002010 105.1524 108.1211  1.00270464 44591
IRNSS-1B                
1 39635U 14017A   26154.79691353  .00000128  00000+0  00000+0 0  9999
2 39635  28.9456 240.6342 0023143 186.5094 167.0601  1.00272113 44656
LUCH-5V                 
1 39727U 14023A   26160.94892699 -.00000251  00000+0  00000+0 0  9996
2 39727   5.1145  69.8240 0002800  34.9718 229.7901  1.00266828 44288
KAZSAT-3                
1 39728U 14023B   26160.70994241  .00000078  00000+0  00000+0 0  9993
2 39728   0.0258  49.1732 0000137   3.2524 159.7259  1.00270882 42382
EUTELSAT 3B             
1 39773U 14030A   26160.69892179  .00000037  00000+0  00000+0 0  9991
2 39773   0.0610 358.2701 0003929  80.9865  73.5359  1.00272666 43990
ASIASAT 8 (AMOS-7)      
1 40107U 14046A   26160.86375521 -.00000315  00000+0  00000+0 0  9997
2 40107   0.0180 323.1783 0001416 117.5202 233.8124  1.00270413102071
ASIASAT 6               
1 40141U 14052A   26160.86468632  .00000000  00000+0  00000+0 0  9998
2 40141   0.0201 355.2143 0000667 108.9677 225.2493  1.00268224 43004
OPTUS 10                
1 40146U 14054A   26160.62336404 -.00000130  00000+0  00000+0 0  9995
2 40146   0.0466 284.2137 0001962 154.6250 199.5599  1.00270113 42953
MEASAT-3B               
1 40147U 14054B   26160.71644243 -.00000224  00000+0  00000+0 0  9993
2 40147   0.0492  48.8331 0003140  20.1826 178.4882  1.00272185 42838
HIMAWARI-8              
1 40267U 14060A   26159.84027778 -.00000259  00000+0  00000+0 0  9991
2 40267   0.0136 319.3355 0000818 138.5674 242.4936  1.00270961 42676
IRNSS-1C                
1 40269U 14061A   26160.71479576 -.00000145  00000+0  00000+0 0  9993
2 40269   6.4996  89.0704 0022663   1.5784 147.7780  1.00270512 42614
INTELSAT 30 (IS-30)     
1 40271U 14062A   26160.45931153 -.00000133  00000+0  00000+0 0  9999
2 40271   0.0210  37.4356 0000875 356.8023 293.8423  1.00267702  6714
ARSAT 1                 
1 40272U 14062B   26160.39893297 -.00000243  00000+0  00000+0 0  9991
2 40272   0.0140   4.4256 0001724  72.0389 253.1201  1.00269778 42545
